[{"OBJECT_NAME":"CARTOSAT-2 (IRS-P7)","OBJECT_ID":"2007-001B","EPOCH":"2022-08-17T05:41:55.131360","MEAN_MOTION":15.30753173,"ECCENTRICITY":0.0146709,"INCLINATION":97.8696,"RA_OF_ASC_NODE":338.3063,"ARG_OF_PERICENTER":203.5979,"MEAN_ANOMALY":155.8486,"EPHEMERIS_TYPE":0,"CLASSIFICATION_TYPE":"U","NORAD_CAT_ID":29710,"ELEMENT_SET_NO":999,"REV_AT_EPOCH":84553,"BSTAR":0.00037843,"MEAN_MOTION_DOT":0.0001565,"MEAN_MOTION_DDOT":0},{"OBJECT_NAME":"HAIYANG-1B","OBJECT_ID":"2007-010A","EPOCH":"2022-08-17T01:29:12.471360","MEAN_MOTION":14.30328237,"ECCENTRICITY":0.0014505,"INCLINATION":98.3174,"RA_OF_ASC_NODE":251.5259,"ARG_OF_PERICENTER":37.7285,"MEAN_ANOMALY":322.4912,"EPHEMERIS_TYPE":0,"CLASSIFICATION_TYPE":"U","NORAD_CAT_ID":31113,"ELEMENT_SET_NO":999,"REV_AT_EPOCH":80117,"BSTAR":2.6017e-5,"MEAN_MOTION_DOT":2.6e-7,"MEAN_MOTION_DDOT":0},{"OBJECT_NAME":"COSMO-SKYMED 1","OBJECT_ID":"2007-023A","EPOCH":"2022-08-17T18:27:13.058496","MEAN_MOTION":14.82162595,"ECCENTRICITY":0.0001576,"INCLINATION":97.8893,"RA_OF_ASC_NODE":52.5495,"ARG_OF_PERICENTER":93.9145,"MEAN_ANOMALY":266.2239,"EPHEMERIS_TYPE":0,"CLASSIFICATION_TYPE":"U","NORAD_CAT_ID":31598,"ELEMENT_SET_NO":999,"REV_AT_EPOCH":82204,"BSTAR":3.7055e-5,"MEAN_MOTION_DOT":2.43e-6,"MEAN_MOTION_DDOT":0},{"OBJECT_NAME":"TERRASAR-X","OBJECT_ID":"2007-026A","EPOCH":"2022-08-16T23:15:43.305408","MEAN_MOTION":15.19150174,"ECCENTRICITY":0.0001514,"INCLINATION":97.4462,"RA_OF_ASC_NODE":235.7106,"ARG_OF_PERICENTER":61.6401,"MEAN_ANOMALY":327.1311,"EPHEMERIS_TYPE":0,"CLASSIFICATION_TYPE":"U","NORAD_CAT_ID":31698,"ELEMENT_SET_NO":999,"REV_AT_EPOCH":84130,"BSTAR":-1.19e-6,"MEAN_MOTION_DOT":-9.2e-7,"MEAN_MOTION_DDOT":0},{"OBJECT_NAME":"WORLDVIEW-1 (WV-1)","OBJECT_ID":"2007-041A","EPOCH":"2022-08-16T19:11:07.907712","MEAN_MOTION":15.2432573,"ECCENTRICITY":0.0004823,"INCLINATION":97.3914,"RA_OF_ASC_NODE":347.3651,"ARG_OF_PERICENTER":280.6741,"MEAN_ANOMALY":79.3953,"EPHEMERIS_TYPE":0,"CLASSIFICATION_TYPE":"U","NORAD_CAT_ID":32060,"ELEMENT_SET_NO":999,"REV_AT_EPOCH":82958,"BSTAR":0.0001628,"MEAN_MOTION_DOT":3.911e-5,"MEAN_MOTION_DDOT":0},{"OBJECT_NAME":"YAOGAN 3","OBJECT_ID":"2007-055A","EPOCH":"2022-08-17T20:47:04.757856","MEAN_MOTION":14.81476375,"ECCENTRICITY":0.0001269,"INCLINATION":97.946,"RA_OF_ASC_NODE":251.2786,"ARG_OF_PERICENTER":83.0796,"MEAN_ANOMALY":277.0546,"EPHEMERIS_TYPE":0,"CLASSIFICATION_TYPE":"U","NORAD_CAT_ID":32289,"ELEMENT_SET_NO":999,"REV_AT_EPOCH":79813,"BSTAR":8.6398e-5,"MEAN_MOTION_DOT":6.24e-6,"MEAN_MOTION_DDOT":0},{"OBJECT_NAME":"COSMO-SKYMED 2","OBJECT_ID":"2007-059A","EPOCH":"2022-08-17T19:15:50.526432","MEAN_MOTION":14.82160468,"ECCENTRICITY":0.000161,"INCLINATION":97.8892,"RA_OF_ASC_NODE":52.5825,"ARG_OF_PERICENTER":97.5731,"MEAN_ANOMALY":262.5677,"EPHEMERIS_TYPE":0,"CLASSIFICATION_TYPE":"U","NORAD_CAT_ID":32376,"ELEMENT_SET_NO":999,"REV_AT_EPOCH":79479,"BSTAR":3.7253e-5,"MEAN_MOTION_DOT":2.44e-6,"MEAN_MOTION_DDOT":0},{"OBJECT_NAME":"RADARSAT-2","OBJECT_ID":"2007-061A","EPOCH":"2022-08-17T20:10:52.622976","MEAN_MOTION":14.29985133,"ECCENTRICITY":0.0001268,"INCLINATION":98.5766,"RA_OF_ASC_NODE":235.8841,"ARG_OF_PERICENTER":91.313,"MEAN_ANOMALY":320.2369,"EPHEMERIS_TYPE":0,"CLASSIFICATION_TYPE":"U","NORAD_CAT_ID":32382,"ELEMENT_SET_NO":999,"REV_AT_EPOCH":76607,"BSTAR":5.1598e-5,"MEAN_MOTION_DOT":8.9e-7,"MEAN_MOTION_DDOT":0},{"OBJECT_NAME":"CARTOSAT-2A","OBJECT_ID":"2008-021A","EPOCH":"2022-08-17T19:06:17.037792","MEAN_MOTION":14.78647175,"ECCENTRICITY":0.0011974,"INCLINATION":97.9606,"RA_OF_ASC_NODE":289.3942,"ARG_OF_PERICENTER":335.4409,"MEAN_ANOMALY":24.6229,"EPHEMERIS_TYPE":0,"CLASSIFICATION_TYPE":"U","NORAD_CAT_ID":32783,"ELEMENT_SET_NO":999,"REV_AT_EPOCH":77208,"BSTAR":4.2553e-5,"MEAN_MOTION_DOT":2.6e-6,"MEAN_MOTION_DDOT":0},{"OBJECT_NAME":"HUANJING 1A (HJ-1A)","OBJECT_ID":"2008-041A","EPOCH":"2022-08-17T18:17:44.232864","MEAN_MOTION":14.77891637,"ECCENTRICITY":0.0022012,"INCLINATION":97.6742,"RA_OF_ASC_NODE":259.9368,"ARG_OF_PERICENTER":35.966,"MEAN_ANOMALY":324.3019,"EPHEMERIS_TYPE":0,"CLASSIFICATION_TYPE":"U","NORAD_CAT_ID":33320,"ELEMENT_SET_NO":999,"REV_AT_EPOCH":75144,"BSTAR":4.8378e-5,"MEAN_MOTION_DOT":3.0e-6,"MEAN_MOTION_DDOT":0},{"OBJECT_NAME":"HUANJING 1B (HJ-1B)","OBJECT_ID":"2008-041B","EPOCH":"2022-08-17T18:43:05.790432","MEAN_MOTION":14.77826108,"ECCENTRICITY":0.0035597,"INCLINATION":97.6913,"RA_OF_ASC_NODE":263.6422,"ARG_OF_PERICENTER":52.2517,"MEAN_ANOMALY":308.1896,"EPHEMERIS_TYPE":0,"CLASSIFICATION_TYPE":"U","NORAD_CAT_ID":33321,"ELEMENT_SET_NO":999,"REV_AT_EPOCH":75144,"BSTAR":0.00010357,"MEAN_MOTION_DOT":7.02e-6,"MEAN_MOTION_DDOT":0},{"OBJECT_NAME":"GEOEYE 1","OBJECT_ID":"2008-042A","EPOCH":"2022-08-17T12:15:05.373504","MEAN_MOTION":14.64555848,"ECCENTRICITY":0.0010235,"INCLINATION":98.1087,"RA_OF_ASC_NODE":303.6118,"ARG_OF_PERICENTER":85.4717,"MEAN_ANOMALY":274.7663,"EPHEMERIS_TYPE":0,"CLASSIFICATION_TYPE":"U","NORAD_CAT_ID":33331,"ELEMENT_SET_NO":999,"REV_AT_EPOCH":74530,"BSTAR":5.1997e-5,"MEAN_MOTION_DOT":2.28e-6,"MEAN_MOTION_DDOT":0},{"OBJECT_NAME":"THEOS","OBJECT_ID":"2008-049A","EPOCH":"2022-08-17T19:18:31.182912","MEAN_MOTION":14.2000671,"ECCENTRICITY":0.0001338,"INCLINATION":98.7443,"RA_OF_ASC_NODE":296.8452,"ARG_OF_PERICENTER":97.8958,"MEAN_ANOMALY":329.9419,"EPHEMERIS_TYPE":0,"CLASSIFICATION_TYPE":"U","NORAD_CAT_ID":33396,"ELEMENT_SET_NO":999,"REV_AT_EPOCH":71937,"BSTAR":8.3121e-5,"MEAN_MOTION_DOT":1.33e-6,"MEAN_MOTION_DDOT":0},{"OBJECT_NAME":"COSMO-SKYMED 3","OBJECT_ID":"2008-054A","EPOCH":"2022-08-17T19:22:06.887424","MEAN_MOTION":14.91874652,"ECCENTRICITY":0.0015993,"INCLINATION":97.89,"RA_OF_ASC_NODE":53.6286,"ARG_OF_PERICENTER":274.5801,"MEAN_ANOMALY":85.3646,"EPHEMERIS_TYPE":0,"CLASSIFICATION_TYPE":"U","NORAD_CAT_ID":33412,"ELEMENT_SET_NO":999,"REV_AT_EPOCH":74732,"BSTAR":1.7358e-5,"MEAN_MOTION_DOT":1.17e-6,"MEAN_MOTION_DDOT":0},{"OBJECT_NAME":"YAOGAN 4","OBJECT_ID":"2008-061A","EPOCH":"2022-08-17T09:36:13.666752","MEAN_MOTION":14.77434611,"ECCENTRICITY":0.0014929,"INCLINATION":97.8183,"RA_OF_ASC_NODE":167.6823,"ARG_OF_PERICENTER":299.8959,"MEAN_ANOMALY":60.0768,"EPHEMERIS_TYPE":0,"CLASSIFICATION_TYPE":"U","NORAD_CAT_ID":33446,"ELEMENT_SET_NO":999,"REV_AT_EPOCH":73859,"BSTAR":6.9008e-5,"MEAN_MOTION_DOT":4.42e-6,"MEAN_MOTION_DDOT":0},{"OBJECT_NAME":"GOSAT (IBUKI)","OBJECT_ID":"2009-002A","EPOCH":"2022-08-17T05:38:05.291808","MEAN_MOTION":14.67521796,"ECCENTRICITY":0.0001648,"INCLINATION":98.1204,"RA_OF_ASC_NODE":341.3976,"ARG_OF_PERICENTER":93.5496,"MEAN_ANOMALY":266.5897,"EPHEMERIS_TYPE":0,"CLASSIFICATION_TYPE":"U","NORAD_CAT_ID":33492,"ELEMENT_SET_NO":999,"REV_AT_EPOCH":72659,"BSTAR":7.8022e-5,"MEAN_MOTION_DOT":3.94e-6,"MEAN_MOTION_DDOT":0},{"OBJECT_NAME":"YAOGAN 6","OBJECT_ID":"2009-021A","EPOCH":"2022-08-17T11:50:41.068032","MEAN_MOTION":15.29970947,"ECCENTRICITY":0.0027915,"INCLINATION":97.0868,"RA_OF_ASC_NODE":206.8305,"ARG_OF_PERICENTER":80.2708,"MEAN_ANOMALY":280.1684,"EPHEMERIS_TYPE":0,"CLASSIFICATION_TYPE":"U","NORAD_CAT_ID":34839,"ELEMENT_SET_NO":999,"REV_AT_EPOCH":74058,"BSTAR":0.0001464,"MEAN_MOTION_DOT":4.224e-5,"MEAN_MOTION_DDOT":0}]