CARTOSAT-2 (IRS-P7)     
1 29710U 07001B   22229.23744365  .00015650  00000+0  37843-3 0  9992
2 29710  97.8696 338.3063 0146709 203.5979 155.8486 15.30753173845531
HAIYANG-1B              
1 31113U 07010A   22229.06194990  .00000026  00000+0  26017-4 0  9999
2 31113  98.3174 251.5259 0014505  37.7285 322.4912 14.30328237801172
COSMO-SKYMED 1          
1 31598U 07023A   22229.76890114  .00000243  00000+0  37055-4 0  9993
2 31598  97.8893  52.5495 0001576  93.9145 266.2239 14.82162595822041
TERRASAR-X              
1 31698U 07026A   22228.96925122 -.00000092  00000+0 -11900-5 0  9992
2 31698  97.4462 235.7106 0001514  61.6401 327.1311 15.19150174841302
WORLDVIEW-1 (WV-1)      
1 32060U 07041A   22228.79939708  .00003911  00000+0  16280-3 0  9994
2 32060  97.3914 347.3651 0004823 280.6741  79.3953 15.24325730829580
YAOGAN 3                
1 32289U 07055A   22229.86602729  .00000624  00000+0  86398-4 0  9997
2 32289  97.9460 251.2786 0001269  83.0796 277.0546 14.81476375798138
COSMO-SKYMED 2          
1 32376U 07059A   22229.80266813  .00000244  00000+0  37253-4 0  9996
2 32376  97.8892  52.5825 0001610  97.5731 262.5677 14.82160468794794
RADARSAT-2              
1 32382U 07061A   22229.84088684  .00000089  00000+0  51598-4 0  9993
2 32382  98.5766 235.8841 0001268  91.3130 320.2369 14.29985133766072
CARTOSAT-2A             
1 32783U 08021A   22229.79603053  .00000260  00000+0  42553-4 0  9994
2 32783  97.9606 289.3942 0011974 335.4409  24.6229 14.78647175772088
HUANJING 1A (HJ-1A)     
1 33320U 08041A   22229.76231751  .00000300  00000+0  48378-4 0  9999
2 33320  97.6742 259.9368 0022012  35.9660 324.3019 14.77891637751442
HUANJING 1B (HJ-1B)     
1 33321U 08041B   22229.77992813  .00000702  00000+0  10357-3 0  9995
2 33321  97.6913 263.6422 0035597  52.2517 308.1896 14.77826108751445
GEOEYE 1                
1 33331U 08042A   22229.51047886  .00000228  00000+0  51997-4 0  9999
2 33331  98.1087 303.6118 0010235  85.4717 274.7663 14.64555848745307
THEOS                   
1 33396U 08049A   22229.80452758  .00000133  00000+0  83121-4 0  9996
2 33396  98.7443 296.8452 0001338  97.8958 329.9419 14.20006710719373
COSMO-SKYMED 3          
1 33412U 08054A   22229.80702416  .00000117  00000+0  17358-4 0  9991
2 33412  97.8900  53.6286 0015993 274.5801  85.3646 14.91874652747324
YAOGAN 4                
1 33446U 08061A   22229.40015818  .00000442  00000+0  69008-4 0  9995
2 33446  97.8183 167.6823 0014929 299.8959  60.0768 14.77434611738594
GOSAT (IBUKI)           
1 33492U 09002A   22229.23478347  .00000394  00000+0  78022-4 0  9995
2 33492  98.1204 341.3976 0001648  93.5496 266.5897 14.67521796726595
YAOGAN 6                
1 34839U 09021A   22229.49353088  .00004224  00000+0  14640-3 0  9995
2 34839  97.0868 206.8305 0027915  80.2708 280.1684 15.29970947740586
